{"type": "FeatureCollection", "features": [ {"type": "Feature", "properties": {"norad_id": 40664, "name": "SKY MEXICO-1", "group": "intelsat", "lat": -0.03952966759491748, "lon": -110.47575163815986, "alt_km": 35775.274270355534, "timestamp": "2025-12-05T16:54:14.337410+00:00", "meta": {"OBJECT_NAME": "SKY MEXICO-1", "OBJECT_ID": "2015-026B", "EPOCH": "2025-12-05T03:02:57.525216", "MEAN_MOTION": 1.00270045, "ECCENTRICITY": 0.00028355, "INCLINATION": 0.0161, "RA_OF_ASC_NODE": 357.4059, "ARG_OF_PERICENTER": 271.3142, "MEAN_ANOMALY": 132.4452, "EPHEMERIS_TYPE": 0, "CLASSIFICATION_TYPE": "U", "NORAD_CAT_ID": 40664, "ELEMENT_SET_NO": 999, "REV_AT_EPOCH": 3850, "BSTAR": 0, "MEAN_MOTION_DOT": -2.22e-06, "MEAN_MOTION_DDOT": 0}, "tle": {"line1": "1 40664U 15026B   25339.12705469 -.00000222  00000+0  00000+0 0  9995", "line2": "2 40664   0.0161 357.4059 0002835 271.3142 132.4452  1.00270045 38507"}}, "geometry": {"type": "Point", "coordinates": [-110.47575163815986, -0.03952966759491748]}}, {"type": "Feature", "properties": {"norad_id": 40874, "name": "INTELSAT 34 (IS-34)", "group": "intelsat", "lat": -0.031872716991401775, "lon": -87.20315240147774, "alt_km": 35786.74325860087, "timestamp": "2025-12-05T16:54:14.337421+00:00", "meta": {"OBJECT_NAME": "INTELSAT 34 (IS-34)", "OBJECT_ID": "2015-039A", "EPOCH": "2025-12-04T23:44:07.814112", "MEAN_MOTION": 1.00269733, "ECCENTRICITY": 4.423e-05, "INCLINATION": 0.0127, "RA_OF_ASC_NODE": 327.7412, "ARG_OF_PERICENTER": 214.8325, "MEAN_ANOMALY": 192.0071, "EPHEMERIS_TYPE": 0, "CLASSIFICATION_TYPE": "U", "NORAD_CAT_ID": 40874, "ELEMENT_SET_NO": 999, "REV_AT_EPOCH": 3767, "BSTAR": 0, "MEAN_MOTION_DOT": -2.72e-06, "MEAN_MOTION_DDOT": 0}, "tle": {"line1": "1 40874U 15039A   25338.98897933 -.00000272  00000+0  00000+0 0  9998", "line2": "2 40874   0.0127 327.7412 0000442 214.8325 192.0071  1.00269733 37670"}}, "geometry": {"type": "Point", "coordinates": [-87.20315240147774, -0.031872716991401775]}}, {"type": "Feature", "properties": {"norad_id": 41581, "name": "INTELSAT 31 (IS-31)", "group": "intelsat", "lat": -0.028263935824997144, "lon": -126.75520379027623, "alt_km": 35779.22397745594, "timestamp": "2025-12-05T16:54:14.337432+00:00", "meta": {"OBJECT_NAME": "INTELSAT 31 (IS-31)", "OBJECT_ID": "2016-035A", "EPOCH": "2025-12-04T23:32:53.890656", "MEAN_MOTION": 1.00268487, "ECCENTRICITY": 0.00018908, "INCLINATION": 0.0185, "RA_OF_ASC_NODE": 272.2793, "ARG_OF_PERICENTER": 308.6943, "MEAN_ANOMALY": 111.243, "EPHEMERIS_TYPE": 0, "CLASSIFICATION_TYPE": "U", "NORAD_CAT_ID": 41581, "ELEMENT_SET_NO": 999, "REV_AT_EPOCH": 3473, "BSTAR": 0, "MEAN_MOTION_DOT": -1.37e-06, "MEAN_MOTION_DDOT": 0}, "tle": {"line1": "1 41581U 16035A   25338.98117929 -.00000137  00000+0  00000+0 0  9991", "line2": "2 41581   0.0185 272.2793 0001890 308.6943 111.2430  1.00268487 34733"}}, "geometry": {"type": "Point", "coordinates": [-126.75520379027623, -0.028263935824997144]}}, {"type": "Feature", "properties": {"norad_id": 41747, "name": "INTELSAT 36 (IS-36)", "group": "intelsat", "lat": 0.026995101417751802, "lon": 36.87147127877975, "alt_km": 35781.449648866874, "timestamp": "2025-12-05T16:54:14.337442+00:00", "meta": {"OBJECT_NAME": "INTELSAT 36 (IS-36)", "OBJECT_ID": "2016-053A", "EPOCH": "2025-12-05T02:02:18.337344", "MEAN_MOTION": 1.00286022, "ECCENTRICITY": 0.00024479, "INCLINATION": 0.0121, "RA_OF_ASC_NODE": 359.9688, "ARG_OF_PERICENTER": 310.5924, "MEAN_ANOMALY": 222.6723, "EPHEMERIS_TYPE": 0, "CLASSIFICATION_TYPE": "U", "NORAD_CAT_ID": 41747, "ELEMENT_SET_NO": 999, "REV_AT_EPOCH": 3400, "BSTAR": 0, "MEAN_MOTION_DOT": -1.5e-07, "MEAN_MOTION_DDOT": 0}, "tle": {"line1": "1 41747U 16053A   25339.08493446 -.00000015  00000+0  00000+0 0  9993", "line2": "2 41747   0.0121 359.9688 0002447 310.5924 222.6723  1.00286022 34000"}}, "geometry": {"type": "Point", "coordinates": [36.87147127877975, 0.026995101417751802]}}, {"type": "Feature", "properties": {"norad_id": 41945, "name": "INTELSAT 32E (IS-32E)", "group": "intelsat", "lat": -0.02890433390905672, "lon": -74.89032174820056, "alt_km": 35786.01681682503, "timestamp": "2025-12-05T16:54:14.337452+00:00", "meta": {"OBJECT_NAME": "INTELSAT 32E (IS-32E)", "OBJECT_ID": "2017-007B", "EPOCH": "2025-12-04T23:47:37.480128", "MEAN_MOTION": 1.00268908, "ECCENTRICITY": 3.495e-05, "INCLINATION": 0.0354, "RA_OF_ASC_NODE": 76.4553, "ARG_OF_PERICENTER": 258.238, "MEAN_ANOMALY": 53.0863, "EPHEMERIS_TYPE": 0, "CLASSIFICATION_TYPE": "U", "NORAD_CAT_ID": 41945, "ELEMENT_SET_NO": 999, "REV_AT_EPOCH": 3227, "BSTAR": 0, "MEAN_MOTION_DOT": -2.56e-06, "MEAN_MOTION_DDOT": 0}, "tle": {"line1": "1 41945U 17007B   25338.99140602 -.00000256  00000+0  00000+0 0  9992", "line2": "2 41945   0.0354  76.4553 0000349 258.2380  53.0863  1.00268908 32274"}}, "geometry": {"type": "Point", "coordinates": [-74.89032174820056, -0.02890433390905672]}}, {"type": "Feature", "properties": {"norad_id": 42818, "name": "INTELSAT 35E (IS-35E)", "group": "intelsat", "lat": -0.028322867596081245, "lon": -66.16586952186124, "alt_km": 35778.09376269997, "timestamp": "2025-12-05T16:54:14.337463+00:00", "meta": {"OBJECT_NAME": "INTELSAT 35E (IS-35E)", "OBJECT_ID": "2017-041A", "EPOCH": "2025-12-04T23:50:07.239840", "MEAN_MOTION": 1.00270444, "ECCENTRICITY": 0.00024364, "INCLINATION": 0.0171, "RA_OF_ASC_NODE": 338.3796, "ARG_OF_PERICENTER": 280.2111, "MEAN_ANOMALY": 138.516, "EPHEMERIS_TYPE": 0, "CLASSIFICATION_TYPE": "U", "NORAD_CAT_ID": 42818, "ELEMENT_SET_NO": 999, "REV_AT_EPOCH": 3086, "BSTAR": 0, "MEAN_MOTION_DOT": -2.25e-06, "MEAN_MOTION_DDOT": 0}, "tle": {"line1": "1 42818U 17041A   25338.99313935 -.00000225  00000+0  00000+0 0  9997", "line2": "2 42818   0.0171 338.3796 0002436 280.2111 138.5160  1.00270444 30866"}}, "geometry": {"type": "Point", "coordinates": [-66.16586952186124, -0.028322867596081245]}}, {"type": "Feature", "properties": {"norad_id": 42950, "name": "INTELSAT 37E (IS-37E)", "group": "intelsat", "lat": -0.014077219027174393, "lon": -49.66104674904633, "alt_km": 35778.59799469816, "timestamp": "2025-12-05T16:54:14.337473+00:00", "meta": {"OBJECT_NAME": "INTELSAT 37E (IS-37E)", "OBJECT_ID": "2017-059A", "EPOCH": "2025-12-05T03:20:18.361824", "MEAN_MOTION": 1.00270825, "ECCENTRICITY": 0.00035102, "INCLINATION": 0.0019, "RA_OF_ASC_NODE": 0.7049, "ARG_OF_PERICENTER": 251.0809, "MEAN_ANOMALY": 214.4959, "EPHEMERIS_TYPE": 0, "CLASSIFICATION_TYPE": "U", "NORAD_CAT_ID": 42950, "ELEMENT_SET_NO": 999, "REV_AT_EPOCH": 3012, "BSTAR": 0, "MEAN_MOTION_DOT": -1.28e-06, "MEAN_MOTION_DDOT": 0}, "tle": {"line1": "1 42950U 17059A   25339.13910141 -.00000128  00000+0  00000+0 0  9994", "line2": "2 42950   0.0019   0.7049 0003510 251.0809 214.4959  1.00270825 30121"}}, "geometry": {"type": "Point", "coordinates": [-49.66104674904633, -0.014077219027174393]}}, {"type": "Feature", "properties": {"norad_id": 43632, "name": "AZERSPACE 2 (IS-38)", "group": "intelsat", "lat": 0.029480098039500028, "lon": 13.43211020841434, "alt_km": 35787.73614867704, "timestamp": "2025-12-05T16:54:14.337484+00:00", "meta": {"OBJECT_NAME": "AZERSPACE 2 (IS-38)", "OBJECT_ID": "2018-074A", "EPOCH": "2025-12-05T00:42:09.646848", "MEAN_MOTION": 1.00270458, "ECCENTRICITY": 0.00016586, "INCLINATION": 0.0165, "RA_OF_ASC_NODE": 329.2688, "ARG_OF_PERICENTER": 303.0839, "MEAN_ANOMALY": 217.3943, "EPHEMERIS_TYPE": 0, "CLASSIFICATION_TYPE": "U", "NORAD_CAT_ID": 43632, "ELEMENT_SET_NO": 999, "REV_AT_EPOCH": 2650, "BSTAR": 0, "MEAN_MOTION_DOT": 1.49e-06, "MEAN_MOTION_DDOT": 0}, "tle": {"line1": "1 43632U 18074A   25339.02927832  .00000149  00000+0  00000+0 0  9995", "line2": "2 43632   0.0165 329.2688 0001658 303.0839 217.3943  1.00270458 26505"}}, "geometry": {"type": "Point", "coordinates": [13.43211020841434, 0.029480098039500028]}}, {"type": "Feature", "properties": {"norad_id": 43633, "name": "HORIZONS-3E", "group": "intelsat", "lat": -0.011064373204350072, "lon": 137.31376272981848, "alt_km": 35790.521653709824, "timestamp": "2025-12-05T16:54:14.337494+00:00", "meta": {"OBJECT_NAME": "HORIZONS-3E", "OBJECT_ID": "2018-074B", "EPOCH": "2025-12-05T02:31:00.587424", "MEAN_MOTION": 1.00269387, "ECCENTRICITY": 0.00011562, "INCLINATION": 0.0395, "RA_OF_ASC_NODE": 193.0784, "ARG_OF_PERICENTER": 85.1125, "MEAN_ANOMALY": 2.7538, "EPHEMERIS_TYPE": 0, "CLASSIFICATION_TYPE": "U", "NORAD_CAT_ID": 43633, "ELEMENT_SET_NO": 999, "REV_AT_EPOCH": 2639, "BSTAR": 0, "MEAN_MOTION_DOT": -1.8e-07, "MEAN_MOTION_DDOT": 0}, "tle": {"line1": "1 43633U 18074B   25339.10486791 -.00000018  00000+0  00000+0 0  9995", "line2": "2 43633   0.0395 193.0784 0001156  85.1125   2.7538  1.00269387 26396"}}, "geometry": {"type": "Point", "coordinates": [137.31376272981848, -0.011064373204350072]}}, {"type": "Feature", "properties": {"norad_id": 44333, "name": "AT&T T-16", "group": "intelsat", "lat": -0.011841978613495412, "lon": -132.55770010502016, "alt_km": 35784.59723073872, "timestamp": "2025-12-05T16:54:14.337505+00:00", "meta": {"OBJECT_NAME": "AT&T T-16", "OBJECT_ID": "2019-034A", "EPOCH": "2025-12-04T23:31:09.058080", "MEAN_MOTION": 1.00271015, "ECCENTRICITY": 6.555e-05, "INCLINATION": 0.032, "RA_OF_ASC_NODE": 71.7135, "ARG_OF_PERICENTER": 104.2001, "MEAN_ANOMALY": 150.0544, "EPHEMERIS_TYPE": 0, "CLASSIFICATION_TYPE": "U", "NORAD_CAT_ID": 44333, "ELEMENT_SET_NO": 999, "REV_AT_EPOCH": 2368, "BSTAR": 0, "MEAN_MOTION_DOT": -1.02e-06, "MEAN_MOTION_DDOT": 0}, "tle": {"line1": "1 44333U 19034A   25338.97996595 -.00000102  00000+0  00000+0 0  9996", "line2": "2 44333   0.0320  71.7135 0000655 104.2001 150.0544  1.00271015 23687"}}, "geometry": {"type": "Point", "coordinates": [-132.55770010502016, -0.011841978613495412]}}]}